id,name,address,latitude,longitude,status,X,Y,nearest_bg
15041,Hollywood,"5700 Hollywood Boulevard, Los Angeles, CA 90028",34.10136,-118.314043,Open - Retail,155548.6340969285,-433540.1762968255,060371905102
14996,Santa Monica,"1819 Cloverfield Blvd., Santa Monica, CA 90404",34.025237,-118.469573,Open - Retail,141336.84422157027,-442226.81175426533,060377018015
14972,Cal State LA,"5151 State University Dr, Los Angeles, CA 90032",34.065956,-118.165565,Open - Legacy Retail,169321.75839633084,-437212.57035433967,060372017001
14999,Fairfax-LA,"7751 Beverly Blvd., Los Angeles, CA  90036",34.076438,-118.358684,Open - Retail,151478.2725835228,-436376.7104825084,060372144003
15003,Lawndale,"15606 Inglewood Avenue, Lawndale, CA 90260",33.889393,-118.360961,Open - Retail,151626.80272020237,-457124.32160449866,060376039004
15042,Playa Del Rey,"8126 Lincoln Boulevard, Los Angeles, CA 90045",33.963207,-118.421598,Open - Retail,145881.53519210895,-449033.68933602236,060372766012
15040,Long Beach,"3401 Long Beach Blvd, Long Beach, CA 90807",33.81951,-118.189659,Open - Retail,167620.02420357228,-464584.94757869,060375720022
15005,San Juan Capistrano,"26572 Junipero Serra Road, San Juan Capistrano, CA 92675",33.519859,-117.666836,Open - Retail,216837.25417103953,-496742.4122653217,060590423121
15006,West Sacramento,"1515 South River Road, West Sacramento, CA 95691",38.569408,-121.521431,Open - Retail,-132405.00718517782,62540.53391005518,061130102011
15029,San Jose,"2101 North First Street, San Jose, CA 95131",37.373278,-121.918801,Open - Retail,-169673.4491522054,-69772.2795988745,060855051001
15688,Emeryville,"1172 45th St, Emeryville, CA 94608",37.833916,-122.282448,Open - Retail,-200591.22251844025,-17867.66870260937,060014251042
15004,Diamond Bar,"21865 Copley Dr, Diamond Bar, CA 91765",34.001754,-117.828631,Open - Retail,200579.46857190004,-443675.4124772055,060374033231
15488,Citrus Heights,"6141 Greenback Lane, Citrus Heights, CA 95621",38.679614,-121.320767,Open - Retail,-114772.46126823402,74527.77570149908,060670081352
15595,Torrance,"2051 W. 190th Street, Torrance, CA 90501",33.858572,-118.315341,Open - Retail,155907.38739025584,-460468.0608770158,060376501012
15007,UC Irvine,"19172 Jamboree Rd, Irvine, CA 92612",33.6647,-117.854777,Open - Retail,199010.37083422157,-481100.56340235565,060590626102
15022,Campbell,"2855 Winchester Boulevard, Campbell, CA 95008",37.271963,-121.954657,Open - Retail,-173075.8138371841,-80967.46584503027,060855065023
15026,Palo Alto,"3601 El Camino Real, Palo Alto, CA 94306",37.418905,-122.133158,Open - Retail,-188511.2073701253,-64296.48142879177,060855107002
15024,Mill Valley,"570 Redwood Highway, Mill Valley, CA 94941",37.889816,-122.516576,Open - Retail,-220997.8477876591,-11134.869445498567,060411262002
15483,Oakland - Grand Ave,"350 Grand Avenue, Oakland, CA 94610",37.809231,-122.255632,Open - Retail,-198300.2471268382,-20667.449274819344,060014037022
15021,Anaheim,"3731 E. La Palma, Anaheim, CA 92806",33.855878,-117.837718,Open - Retail,200109.1798111836,-459870.01150984224,060590762024
15014,Woodland Hills,"5314 Topanga Canyon, Woodland Hills, CA 91364",34.166944,-118.606082,Open - Retail,128499.9043421512,-426702.8074294613,060371374011
15477,San Francisco - Mission St,"3550 Mission Street, San Francisco, CA 94110",37.740423,-122.423762,Open - Retail,-213273.54433030146,-27949.34982887609,060750254011
15476,San Francisco - Third St,"551 Third Street, San Francisco, CA 94107",37.780551,-122.394462,Open - Retail,-210583.25616721626,-23555.387648619246,060750615005
15478,San Francisco - Harrison St,"1201 Harrison Street, San Francisco, CA 94103",37.773336,-122.40829600000001,Open - Retail,-211820.01131195025,-24326.38106859103,060750180002
15010,Mountain View,"830 Leong Dr, Mountain View, CA 94043",37.405131,-122.067061,Open - Retail,-182704.41130967473,-65956.6676330613,060855091081
15486,Sacramento,"3510 Fair Oaks Boulevard, Sacramento, CA 95864",38.573849,-121.382608,Open - Retail,-120317.41048761753,62849.10729382606,060670054041
15049,South Pasadena,"1200 Fair Oaks Avenue, South Pasadena, CA 91030",34.111889,-118.149837,Open - Retail,170673.86760682435,-432089.83617553953,060374805004
15030,San Ramon,"4475 Norris Canyon Road, San Ramon, CA 94583",37.7726,-121.969083,Open - Retail,-173197.20872891185,-25300.00130416127,060133451081
15047,Del Mar,"3060 Carmel Valley Road, San Diego, CA 92130",32.933608,-117.242069,Open - Retail,258193.14344773965,-560622.3058186984,060730083292
15048,Santa Barbara,"150 South La Cumbre Road, Santa Barbara, CA 93105",34.438345,-119.750753,Open - Retail,22898.748845160648,-397503.1992150028,060830001022
15035,Harris Ranch,"24505 West Dorris Avenue, Coalinga, CA 93210",36.253164,-120.238534,Open - Retail,-21407.445038944687,-195958.7305807597,060190079022
15281,Thousand Oaks,"3102 Thousand Oaks Blvd., Thousand Oaks, CA 91362",34.168718,-118.835965,Open - Retail,107306.63415466655,-426791.8941397108,061110071002
15015,LAX,"10400 Aviation Blvd, Los Angeles, CA  90045",33.941389,-118.377867,Open - Retail,149964.3236231856,-451385.0902296896,060372774001
15033,Lake Tahoe-Truckee,"12105 Donner Pass Road, Truckee, CA 96161",39.324897,-120.223524,Open - Retail,-19255.38688071049,145470.46892302623,060570012062
15039,Lake Forest,"20731 Lake Forest Drive, Lake Forest, CA 92630",33.661574,-117.668434,Open - Retail,216302.4173813278,-481038.9338202989,060590524232
15023,Hayward,"391 West A Street, Hayward, CA 94541",37.666872,-122.106548,Open - Retail,-185547.59988433897,-36790.625013241544,060014362001
15037,La Canada Flintridge,"550 Foothill Boulevard, La Canada Flintridge, CA 91011",34.200055,-118.191354,Open - Retail,166657.89287861084,-422384.27428468736,060374605021
15036,Costa Mesa,"2050 Harbor Boulevard, Costa Mesa, CA 92627",33.648745,-117.91855,Open - Retail,193134.0085857721,-483001.0777035686,060590637025
15280,Fremont,"41700 Grimmer Boulevard, Fremont, CA 94538",37.522152,-121.968533,Open - Retail,-173726.87268807017,-53136.294885932,060014423011
15031,Saratoga,"12600 Saratoga Avenue, Saratoga, CA 95070",37.284205,-121.999374,Open - Retail,-177006.02060134275,-79524.37139406428,060855074022
15032,South San Francisco,"248 South Airport Blvd., South San Francisco, CA 94080",37.64788,-122.40596,Open - Retail,-211968.47702931325,-38273.60430948855,060816023001
15011,Oakland - AC Transit (bus),"1100 Seminary Ave, Bus yard, Oakland, CA 94621",37.761153,-122.205124,NA,-193985.02678508958,-26115.139805603307,060014073001
15479,Sherman Oaks,"14478 Ventura Boulevard, Sherman Oaks, CA 91423",34.15047,-118.448356,Commissioning,143068.73162484646,-428304.34390706243,060371412022
15034,Woodside,"17287 Skyline Boulevard, Woodside, CA 94062",37.386498,-122.264313,Commissioning,-200185.51232484102,-67629.12154112058,060816134003
15046,Riverside,"3044 St. Lawrence Street, Riverside, CA 92504",33.92382,-117.412024,Not Operational,239290.54054832307,-451350.5384676233,060650317043
15484,Fountain Valley,"18480 Brookhurst Street, Fountain Valley, CA 92708",33.694484,-117.9538,Under Construction,189754.28844188416,-478001.8988506957,060590992302
15472,Berkeley,"1250 University Avenue, Berkeley, CA 94702",37.869541,-122.287045,Commissioning,-200899.62342375386,-13898.763525376562,060014231001
15043,Ontario,"1850 Holt Boulevard, Ontario, CA 91761",34.063173,-117.611311,Not Operational,220478.6404494452,-436381.81736242864,060710015041
15480,Sunnyvale,"1296 Sunnyvale Saratoga Road, Sunnyvale, CA 94087",37.352658,-122.031816,Under Construction,-179714.63663920396,-71855.7110313978,060855085033
15020,Chino,"12600 East End Ave., Chino, CA 91710",34.025358,-117.724246,Approval to Build,210157.3460760659,-440831.76847088523,060710004012
15485,San Diego,"5494 Mission Center Road, San Diego, CA 92108",32.773989,-117.154493,Planning Approval,266919.9933688828,-578051.8455519346,060730093043
15598,Burbank (upgrade),"145 W Verdugo Avenue, Burbank, CA 91510",34.174441,-118.310512,Commissioning,155729.90573167507,-425428.1269019991,060373118021
15487,Campbell - East Hamilton Ave,"337 East Hamilton Avenue, Campbell, CA 95008",37.294617,-121.943869,Commissioning,-172069.09256347216,-78469.3942245841,060855064024
15630,Redwood City,"503 Whipple Avenue, Redwood City, CA 94063",37.494131,-122.236714,Planning Approval,-197463.721312569,-55725.48978986498,060816101001
15847,Laguna Beach,"104 North Coast Highway, Laguna Beach, CA 92651",33.543933,-117.788016,Pre-Permit Application,205514.98625634602,-494344.2115929504,060590626054
15631,Mission Hills,"15544 San Fernando Mission Boulevard, Mission Hills, CA 91345",34.271605,-118.473446,Under Construction,140539.1311810969,-414903.995819618,060371091001
15628,Studio City,"3780 Cahuenga Boulevard, Studio City, CA 91604",34.137032,-118.364929,Under Construction,150786.05178460584,-429665.65290084435,060371438001
15002,Santa Clarita,"24551 Lyons Ave, Santa Clarita, CA 91321",34.378919,-118.566178,Permit in Process,131822.54097152973,-403130.9948377898,060379203341
15846,Culver City,"11284 Venice Boulevard, Culver City, CA 90230",34.008347,-118.425003,Permit in Process,145483.68820418467,-444032.6565213618,060372723012
15001,Rancho Palos Verdes,"28103 Hawthorne Blvd., Rancho Palos Verdes, CA 90275",33.779231,-118.391752,Planning Approval,148985.84703840382,-469388.48654812435,060376704131
15863,Wilmington,"Wilmington, CA",33.78,-118.263,Under Construction,160910.40497865228,-469092.7989889332,060372948201
14995,Newport Beach,"1600 Jamboree Blvd, Newport Beach, CA 92660",33.625325,-117.878799,Not Operational,196879.9155620797,-485515.389904405,060590630042
15848,San Jose - Bernal Road,"101 Bernal Road, San Jose, CA 95119",37.232499,-121.77235400000001,Permit in Process,-157017.70844444365,-85670.81231463328,060855120341
15865,Ontario,"Ontario, CA",34.0658,-117.648,Under Construction,217085.67664642766,-436175.1589574916,060710014002
15864,Long Beach - Port of Long Beach,"925 Harbor Plaza, Long Beach, CA 90801",33.755931,-118.202998,Under Construction,166518.74035461116,-471657.80971431406,060375760012
15867,Santa Ana - OCTA Bus Yard,"4301 E MacArthur Blvd, Santa Ana, CA 92704",33.700099,-117.892153,NA,195456.3515374187,-477254.1985261389,060590741073
15866,Emeryville - AC Transit Bus Yard,"1172 45th St, Emeryville, CA 94608",37.833915,-122.282447,NA,-200591.1373271769,-17867.781953043304,060014251042
14967,Thousand Palms - SunLine Transit (bus),"32505 Harry Oliver Trail, Thousand Palms, CA 92276",33.81325,-116.39442,NA,333807.96157304454,-460531.4094404653,060650445052
15912,Concord,"605 Contra Costa Boulevard, Concord, CA 94523",37.975263,-122.064597,Permit in Process,-181106.5884913967,-2597.2140085324645,060133212003
